SL-4 R/B                
1 39679U 14021B   25353.24878027  .00009446  00000+0  22764-3 0  9994
2 39679  51.6090   8.9575 0101211 169.6889 190.6202 15.36820377643896
ALOS-2                  
1 39766U 14029A   25353.30343591  .00002364  00000+0  32338-3 0  9999
2 39766  97.9229  88.0563 0001391 100.6074 259.5294 14.79468187624983
YAOGAN-29               
1 41038U 15069A   25353.29741751  .00000606  00000+0  81505-4 0  9995
2 41038  98.0213  16.4907 0000429 184.8804 175.2405 14.82889951543962
ASTRO-H (HITOMI)        
1 41337U 16012A   25352.77414017  .00002725  00000+0  16051-3 0  9997
2 41337  30.9977 158.4678 0009678 239.5748 120.3933 15.09389435539995
HXMT (HUIYAN)           
1 42758U 17034A   25353.31243142  .00004599  00000+0  24235-3 0  9994
2 42758  43.0137 103.1522 0031103  86.5820 273.8584 15.16306090470332
CZ-2C R/B               
1 43521U 18054D   25352.69364349  .00097933  00000+0  61448-3 0  9990
2 43521  35.1318 140.4820 0015164 204.8382 155.1623 15.75309621415991
SAOCOM 1A               
1 43641U 18076A   25353.28790103  .00000747  00000+0  10037-3 0  9999
2 43641  97.8839 177.6140 0001501  80.2010 279.9373 14.82166157389458
H-2A R/B                
1 43682U 18084L   25353.13555974  .00014849  00000+0  40027-3 0  9992
2 43682  98.8764 188.5410 0026918 304.1077  55.7609 15.37592577393381
SAOCOM 1B               
1 46265U 20059A   25353.31917608 -.00000166  00000+0 -14279-4 0  9993
2 46265  97.8833 176.7450 0001390  86.3228 273.8144 14.82141689286846
CSS (TIANHE)            
1 48274U 21035A   25353.24747982  .00020088  00000+0  24976-3 0  9995
2 48274  41.4684 337.1916 0007726  88.0762 272.0962 15.59458428265043
CZ-2C R/B               
1 52794U 22058K   25352.48524090  .00023076  00000+0  41195-3 0  9993
2 52794  50.1911  14.2431 0045044 222.2982 137.4509 15.48776327197528
