CCSDS_OMM_VERS = 2.0
CREATION_DATE  = 
ORIGINATOR     = 

OBJECT_NAME    = SL-4 R/B
OBJECT_ID      = 2014-021B
CENTER_NAME    = EARTH
REF_FRAME      = TEME
TIME_SYSTEM    = UTC
MEAN_ELEMENT_THEORY = SGP/SGP4

EPOCH          = 2025-12-19T05:58:14.615328
MEAN_MOTION    = 15.36820377
ECCENTRICITY   = .01012114
INCLINATION    = 51.6090
RA_OF_ASC_NODE = 8.9575
ARG_OF_PERICENTER = 169.6889
MEAN_ANOMALY   = 190.6202

EPHEMERIS_TYPE = 0
CLASSIFICATION_TYPE = U
NORAD_CAT_ID   = 39679
ELEMENT_SET_NO = 999
REV_AT_EPOCH   = 64389
BSTAR          = .22764152E-3
MEAN_MOTION_DOT = .9446E-4
MEAN_MOTION_DDOT = 0

CCSDS_OMM_VERS = 2.0
CREATION_DATE  = 
ORIGINATOR     = 

OBJECT_NAME    = ALOS-2
OBJECT_ID      = 2014-029A
CENTER_NAME    = EARTH
REF_FRAME      = TEME
TIME_SYSTEM    = UTC
MEAN_ELEMENT_THEORY = SGP/SGP4

EPOCH          = 2025-12-19T07:16:56.862624
MEAN_MOTION    = 14.79468187
ECCENTRICITY   = .00013914
INCLINATION    = 97.9229
RA_OF_ASC_NODE = 88.0563
ARG_OF_PERICENTER = 100.6074
MEAN_ANOMALY   = 259.5294

EPHEMERIS_TYPE = 0
CLASSIFICATION_TYPE = U
NORAD_CAT_ID   = 39766
ELEMENT_SET_NO = 999
REV_AT_EPOCH   = 62498
BSTAR          = .32337768E-3
MEAN_MOTION_DOT = .2364E-4
MEAN_MOTION_DDOT = 0

CCSDS_OMM_VERS = 2.0
CREATION_DATE  = 
ORIGINATOR     = 

OBJECT_NAME    = YAOGAN-29
OBJECT_ID      = 2015-069A
CENTER_NAME    = EARTH
REF_FRAME      = TEME
TIME_SYSTEM    = UTC
MEAN_ELEMENT_THEORY = SGP/SGP4

EPOCH          = 2025-12-19T07:08:16.872864
MEAN_MOTION    = 14.82889951
ECCENTRICITY   = .00004298
INCLINATION    = 98.0213
RA_OF_ASC_NODE = 16.4907
ARG_OF_PERICENTER = 184.8804
MEAN_ANOMALY   = 175.2405

EPHEMERIS_TYPE = 0
CLASSIFICATION_TYPE = U
NORAD_CAT_ID   = 41038
ELEMENT_SET_NO = 999
REV_AT_EPOCH   = 54396
BSTAR          = .81504967E-4
MEAN_MOTION_DOT = .606E-5
MEAN_MOTION_DDOT = 0

CCSDS_OMM_VERS = 2.0
CREATION_DATE  = 
ORIGINATOR     = 

OBJECT_NAME    = ASTRO-H (HITOMI)
OBJECT_ID      = 2016-012A
CENTER_NAME    = EARTH
REF_FRAME      = TEME
TIME_SYSTEM    = UTC
MEAN_ELEMENT_THEORY = SGP/SGP4

EPOCH          = 2025-12-18T18:34:45.710688
MEAN_MOTION    = 15.09389435
ECCENTRICITY   = .00096784
INCLINATION    = 30.9977
RA_OF_ASC_NODE = 158.4678
ARG_OF_PERICENTER = 239.5748
MEAN_ANOMALY   = 120.3933

EPHEMERIS_TYPE = 0
CLASSIFICATION_TYPE = U
NORAD_CAT_ID   = 41337
ELEMENT_SET_NO = 999
REV_AT_EPOCH   = 53999
BSTAR          = .16051471E-3
MEAN_MOTION_DOT = .2725E-4
MEAN_MOTION_DDOT = 0

CCSDS_OMM_VERS = 2.0
CREATION_DATE  = 
ORIGINATOR     = 

OBJECT_NAME    = HXMT (HUIYAN)
OBJECT_ID      = 2017-034A
CENTER_NAME    = EARTH
REF_FRAME      = TEME
TIME_SYSTEM    = UTC
MEAN_ELEMENT_THEORY = SGP/SGP4

EPOCH          = 2025-12-19T07:29:54.074688
MEAN_MOTION    = 15.16306090
ECCENTRICITY   = .00311036
INCLINATION    = 43.0137
RA_OF_ASC_NODE = 103.1522
ARG_OF_PERICENTER = 86.5820
MEAN_ANOMALY   = 273.8584

EPHEMERIS_TYPE = 0
CLASSIFICATION_TYPE = U
NORAD_CAT_ID   = 42758
ELEMENT_SET_NO = 999
REV_AT_EPOCH   = 47033
BSTAR          = .24235141E-3
MEAN_MOTION_DOT = .4599E-4
MEAN_MOTION_DDOT = 0

CCSDS_OMM_VERS = 2.0
CREATION_DATE  = 
ORIGINATOR     = 

OBJECT_NAME    = CZ-2C R/B
OBJECT_ID      = 2018-054D
CENTER_NAME    = EARTH
REF_FRAME      = TEME
TIME_SYSTEM    = UTC
MEAN_ELEMENT_THEORY = SGP/SGP4

EPOCH          = 2025-12-18T16:38:50.797536
MEAN_MOTION    = 15.75309621
ECCENTRICITY   = .00151649
INCLINATION    = 35.1318
RA_OF_ASC_NODE = 140.4820
ARG_OF_PERICENTER = 204.8382
MEAN_ANOMALY   = 155.1623

EPHEMERIS_TYPE = 0
CLASSIFICATION_TYPE = U
NORAD_CAT_ID   = 43521
ELEMENT_SET_NO = 999
REV_AT_EPOCH   = 41599
BSTAR          = .61447676E-3
MEAN_MOTION_DOT = .97933E-3
MEAN_MOTION_DDOT = 0

CCSDS_OMM_VERS = 2.0
CREATION_DATE  = 
ORIGINATOR     = 

OBJECT_NAME    = SAOCOM 1A
OBJECT_ID      = 2018-076A
CENTER_NAME    = EARTH
REF_FRAME      = TEME
TIME_SYSTEM    = UTC
MEAN_ELEMENT_THEORY = SGP/SGP4

EPOCH          = 2025-12-19T06:54:34.648992
MEAN_MOTION    = 14.82166157
ECCENTRICITY   = .00015012
INCLINATION    = 97.8839
RA_OF_ASC_NODE = 177.6140
ARG_OF_PERICENTER = 80.2010
MEAN_ANOMALY   = 279.9373

EPHEMERIS_TYPE = 0
CLASSIFICATION_TYPE = U
NORAD_CAT_ID   = 43641
ELEMENT_SET_NO = 999
REV_AT_EPOCH   = 38945
BSTAR          = .1003698E-3
MEAN_MOTION_DOT = .747E-5
MEAN_MOTION_DDOT = 0

CCSDS_OMM_VERS = 2.0
CREATION_DATE  = 
ORIGINATOR     = 

OBJECT_NAME    = H-2A R/B
OBJECT_ID      = 2018-084L
CENTER_NAME    = EARTH
REF_FRAME      = TEME
TIME_SYSTEM    = UTC
MEAN_ELEMENT_THEORY = SGP/SGP4

EPOCH          = 2025-12-19T03:15:12.361536
MEAN_MOTION    = 15.37592577
ECCENTRICITY   = .00269181
INCLINATION    = 98.8764
RA_OF_ASC_NODE = 188.5410
ARG_OF_PERICENTER = 304.1077
MEAN_ANOMALY   = 55.7609

EPHEMERIS_TYPE = 0
CLASSIFICATION_TYPE = U
NORAD_CAT_ID   = 43682
ELEMENT_SET_NO = 999
REV_AT_EPOCH   = 39338
BSTAR          = .40027445E-3
MEAN_MOTION_DOT = .14849E-3
MEAN_MOTION_DDOT = 0

CCSDS_OMM_VERS = 2.0
CREATION_DATE  = 
ORIGINATOR     = 

OBJECT_NAME    = SAOCOM 1B
OBJECT_ID      = 2020-059A
CENTER_NAME    = EARTH
REF_FRAME      = TEME
TIME_SYSTEM    = UTC
MEAN_ELEMENT_THEORY = SGP/SGP4

EPOCH          = 2025-12-19T07:39:36.813312
MEAN_MOTION    = 14.82141689
ECCENTRICITY   = .00013904
INCLINATION    = 97.8833
RA_OF_ASC_NODE = 176.7450
ARG_OF_PERICENTER = 86.3228
MEAN_ANOMALY   = 273.8144

EPHEMERIS_TYPE = 0
CLASSIFICATION_TYPE = U
NORAD_CAT_ID   = 46265
ELEMENT_SET_NO = 999
REV_AT_EPOCH   = 28684
BSTAR          = -.14278641E-4
MEAN_MOTION_DOT = -.166E-5
MEAN_MOTION_DDOT = 0

CCSDS_OMM_VERS = 2.0
CREATION_DATE  = 
ORIGINATOR     = 

OBJECT_NAME    = CSS (TIANHE)
OBJECT_ID      = 2021-035A
CENTER_NAME    = EARTH
REF_FRAME      = TEME
TIME_SYSTEM    = UTC
MEAN_ELEMENT_THEORY = SGP/SGP4

EPOCH          = 2025-12-19T05:56:22.256448
MEAN_MOTION    = 15.59458428
ECCENTRICITY   = .00077261
INCLINATION    = 41.4684
RA_OF_ASC_NODE = 337.1916
ARG_OF_PERICENTER = 88.0762
MEAN_ANOMALY   = 272.0962

EPHEMERIS_TYPE = 0
CLASSIFICATION_TYPE = U
NORAD_CAT_ID   = 48274
ELEMENT_SET_NO = 999
REV_AT_EPOCH   = 26504
BSTAR          = .24976186E-3
MEAN_MOTION_DOT = .20088E-3
MEAN_MOTION_DDOT = 0

CCSDS_OMM_VERS = 2.0
CREATION_DATE  = 
ORIGINATOR     = 

OBJECT_NAME    = CZ-2C R/B
OBJECT_ID      = 2022-058K
CENTER_NAME    = EARTH
REF_FRAME      = TEME
TIME_SYSTEM    = UTC
MEAN_ELEMENT_THEORY = SGP/SGP4

EPOCH          = 2025-12-18T11:38:44.813760
MEAN_MOTION    = 15.48776327
ECCENTRICITY   = .0045044
INCLINATION    = 50.1911
RA_OF_ASC_NODE = 14.2431
ARG_OF_PERICENTER = 222.2982
MEAN_ANOMALY   = 137.4509

EPHEMERIS_TYPE = 0
CLASSIFICATION_TYPE = U
NORAD_CAT_ID   = 52794
ELEMENT_SET_NO = 999
REV_AT_EPOCH   = 19752
BSTAR          = .41195427E-3
MEAN_MOTION_DOT = .23076E-3
MEAN_MOTION_DDOT = 0

